INTELSAT 902 (IS-902)   
1 26900U 01039A   26150.20795828 -.00000274  00000+0  00000+0 0  9997
2 26900   6.0731  71.9994 0004183 352.2259 208.2625  1.00271460 90510
INTELSAT 904 (IS-904)   
1 27380U 02007A   26150.09836431 -.00000217  00000+0  00000+0 0  9996
2 27380   6.8765  69.4001 0007422 354.6492 187.4997  1.00272272 51589
DIRECTV 5 (TEMPO 1)     
1 27426U 02023A   26150.53760630 -.00000047  00000+0  00000+0 0  9992
2 27426   4.8341  75.5278 0003564 355.6834 260.2804  1.00271631 87940
INTELSAT 905 (IS-905)   
1 27438U 02027A   26150.40467109  .00000102  00000+0  00000+0 0  9991
2 27438   6.7104  70.0130 0004302   6.5347 179.8422  1.00272604 51189
GALAXY 3C (G-3C)        
1 27445U 02030A   26150.53099330 -.00000142  00000+0  00000+0 0  9999
2 27445   3.6861  78.2106 0001989  25.1111 241.0250  1.00272068 46314
INTELSAT 906 (IS-906)   
1 27513U 02041A   26149.98080478  .00000022  00000+0  00000+0 0  9993
2 27513   5.7578  73.1422 0004572 351.9064 239.6895  1.00272505 86847
GALAXY 13 (HORIZONS-1)  
1 27954U 03044A   26150.55805066  .00000144  00000+0  00000+0 0  9994
2 27954   1.3745  84.0708 0002072 334.3984 240.5086  1.00269268 46392
INTELSAT 10-02          
1 28358U 04022A   26150.36035843  .00000001  00000+0  00000+0 0  9999
2 28358   0.0217  27.5061 0000309  55.8827 293.2181  1.00270266 80374
DIRECTV 8               
1 28659U 05019A   26150.54015161  .00000013  00000+0  00000+0 0  9994
2 28659   0.0287  67.3966 0003370   9.3861 246.6769  1.00271892 76896
GALAXY 28 (G-28)        
1 28702U 05022A   26150.35515839 -.00000189  00000+0  00000+0 0  9998
2 28702   3.2545  79.1546 0003407 351.1306 278.3440  1.00275999 51797
GALAXY 16 (G-16)        
1 29236U 06023A   26150.53321869 -.00000114  00000+0  00000+0 0  9999
2 29236   0.0023 214.4760 0003040 218.9906 267.5353  1.00270142 72798
DIRECTV 9S              
1 29494U 06043A   26150.53383183 -.00000102  00000+0  00000+0 0  9991
2 29494   2.3764  81.1114 0005175 359.0665 258.8588  1.00272261 51203
GALAXY 17 (G-17)        
1 31307U 07016B   26150.48631133 -.00000195  00000+0  00000+0 0  9995
2 31307   2.9289  80.1203 0004903   7.0714 250.8885  1.00272041 69621
INTELSAT 11 (IS-11)     
1 32253U 07044B   26150.56755537 -.00000003  00000+0  00000+0 0  9999
2 32253   3.5208  78.8800 0001257  69.0550 147.6550  0.99051634 68274
HORIZONS-2              
1 32388U 07063B   26150.48847801 -.00000242  00000+0  00000+0 0  9991
2 32388   2.5577  80.8416 0004148 349.8844 279.3521  1.00271278 67635
DIRECTV 11              
1 32729U 08013A   26150.41220970 -.00000113  00000+0  00000+0 0  9998
2 32729   0.0173 138.4155 0000324 245.3777 273.3423  1.00271485 45413
GALAXY 18 (G-18)        
1 32951U 08024A   26150.54222166  .00000038  00000+0  00000+0 0  9995
2 32951   0.0502 104.5923 0003244 327.8541 247.8122  1.00271093 45677
INTELSAT 25 (IS-25)     
1 33153U 08034A   26150.55252189 -.00000020  00000+0  00000+0 0  9992
2 33153   2.6641  80.5205 0002016  22.2970 184.6338  0.99034854 65519
GALAXY 19 (G-19)        
1 33376U 08045A   26150.53180755 -.00000127  00000+0  00000+0 0  9996
2 33376   0.0461 107.8627 0003318 332.8144 261.8304  1.00272380 64722
FM-5                    
1 35493U 09034A   26150.41472307 -.00000188  00000+0  00000+0 0  9998
2 35493   0.0152 313.2721 0000366 344.3479  13.4514  1.00271184 46464
INTELSAT 14 (IS-14)     
1 36097U 09064A   26150.42286977 -.00000261  00000+0  00000+0 0  9991
2 36097   0.0152   6.4811 0002767  73.4055 275.2944  1.00271462 60429
INTELSAT 15 (IS-15)     
1 36106U 09067A   26150.52002483 -.00000173  00000+0  00000+0 0  9996
2 36106   0.0165 330.0515 0002488  99.7431  90.5993  1.00272149 41053
DIRECTV 12              
1 36131U 09075A   26150.53390567 -.00000091  00000+0  00000+0 0  9996
2 36131   0.0109  84.9814 0000336 304.5412 308.0043  1.00272922 46374
INTELSAT 16 (IS-16)     
1 36397U 10006A   26150.48804469 -.00000232  00000+0  00000+0 0  9998
2 36397   0.0114 315.8840 0003031 145.6647 245.9546  1.00271795 59477
XM-5                    
1 37185U 10053A   26150.48033131 -.00000011  00000+0  00000+0 0  9991
2 37185   0.0618 274.4745 0003319 275.0381 116.2089  1.00271904 57302
INTELSAT 17 (IS-17)     
1 37238U 10065B   26150.51621147  .00000011  00000+0  00000+0 0  9996
2 37238   0.0168 135.0490 0002382 292.6927  72.1257  1.00270840 53075
INTELSAT 28 (IS-28)     
1 37392U 11016A   26150.42555645 -.00000213  00000+0  00000+0 0  9998
2 37392   1.7614  82.8375 0003815 343.9777 302.6380  1.00274172 53100
INTELSAT 18 (IS-18)     
1 37834U 11056A   26150.45431082  .00000065  00000+0  00000+0 0  9998
2 37834   0.0187 319.9204 0002223 118.1620 153.4460  1.00272671 53635
INTELSAT 22 (IS-22)     
1 38098U 12011A   26150.51742480 -.00000046  00000+0  00000+0 0  9997
2 38098   0.0124  99.3294 0002125 342.8303  64.2445  1.00271540  7019
INTELSAT 19 (IS-19)     
1 38356U 12030A   26150.53205476 -.00000044  00000+0  00000+0 0  9994
2 38356   0.0167 354.4477 0003274  78.7207 172.4220  1.00271205 50272
INTELSAT 20 (IS-20)     
1 38740U 12043A   26150.51673147 -.00000012  00000+0  00000+0 0  9992
2 38740   0.0093  93.5875 0001466  89.6941 319.2803  1.00271470 50572
INTELSAT 21 (IS-21)     
1 38749U 12045A   26150.49159802 -.00000273  00000+0  00000+0 0  9996
2 38749   0.0227  51.2276 0002117  24.2034 291.5565  1.00272205 50347
INTELSAT 23 (IS-23)     
1 38867U 12057A   26150.42542303 -.00000273  00000+0  00000+0 0  9995
2 38867   0.0118 321.8912 0000403 190.4188 195.7632  1.00268797 49778
FM-6                    
1 39360U 13058A   26150.36850380 -.00000003  00000+0  00000+0 0  9997
2 39360   0.0076  34.7457 0002062 108.6624 120.8149  1.00265824 45892
INTELSAT 30 (IS-30)     
1 40271U 14062A   26150.48431800 -.00000139  00000+0  00000+0 0  9991
2 40271   0.0319  52.2211 0001074 353.2187 281.8633  1.00272345  6611
DIRECTV 14              
1 40333U 14078B   26150.41220970 -.00000113  00000+0  00000+0 0  9996
2 40333   0.0116 327.6402 0000271 190.3949 139.0557  1.00271137 41863
DIRECTV 15              
1 40663U 15026A   26150.48275799  .00000000  00000+0  00000+0 0  9996
2 40663   0.0220 347.5741 0000381 147.2698 184.0636  1.00270192 40289
SKY MEXICO-1            
1 40664U 15026B   26150.48752469 -.00000222  00000+0  00000+0 0  9998
2 40664   0.0181 326.1176 0002301 116.3921 262.1993  1.00272508 40277
INTELSAT 34 (IS-34)     
1 40874U 15039A   26150.49211803 -.00000273  00000+0  00000+0 0  9994
2 40874   0.0102 310.8615 0000437  93.1170 325.7057  1.00277057 39456
INTELSAT 31 (IS-31)     
1 41581U 16035A   26150.34172499 -.00000139  00000+0  00000+0 0  9999
2 41581   0.0152 278.0375 0000773 334.0130  23.7883  1.00271763 36504
INTELSAT 36 (IS-36)     
1 41747U 16053A   26150.51673147 -.00000012  00000+0  00000+0 0  9998
2 41747   0.0112 357.1272 0001600 346.4278 159.0082  1.00271501 35782
INTELSAT 32E (IS-32E)   
1 41945U 17007B   26150.42330309  .00000000  00000+0  00000+0 0  9994
2 41945   0.0225 346.0570 0000424  43.5456 327.5456  1.00273203 34047
INTELSAT 35E (IS-35E)   
1 42818U 17041A   26150.42494977 -.00000226  00000+0  00000+0 0  9995
2 42818   0.0160  11.5404 0002303  55.6518 299.2484  1.00271364 32631
INTELSAT 37E (IS-37E)   
1 42950U 17059A   26150.42824311 -.00000129  00000+0  00000+0 0  9992
2 42950   0.0159   0.1170 0002595  81.8221 302.1768  1.00271323 31885
AZERSPACE 2 (IS-38)     
1 43632U 18074A   26150.51205146  .00000149  00000+0  00000+0 0  9998
2 43632   0.0187 317.3990 0001743  96.6473  63.4330  1.00271227 28278
HORIZONS-3E             
1 43633U 18074B   26150.46526183 -.00000018  00000+0  00000+0 0  9996
2 43633   0.0188 140.8653 0000636 145.8038 297.7981  1.00272898 28166
AT&T T-16               
1 44333U 19034A   26150.40522139 -.00000103  00000+0  00000+0 0  9997
2 44333   0.0301  68.1197 0000318 193.7962  31.0339  1.00272160 25458
INTELSAT 39 (IS-39)     
1 44476U 19049B   26150.51543147  .00000046  00000+0  00000+0 0  9990
2 44476   0.0196 325.6336 0000515   8.9042 160.9991  1.00271388 24950
GALAXY 30 (G-30)        
1 46114U 20056C   26150.45206685  .00000049  00000+0  00000+0 0  9990
2 46114   0.0188 344.6078 0002524  82.2260 218.8667  1.00271057 21116
GALAXY 33 (G-33)        
1 54026U 22128A   26150.47677795  .00000091  00000+0  00000+0 0  9996
2 54026   0.0122 319.7326 0002054 109.0890 217.8188  1.00271591 13569
GALAXY 34 (G-34)        
1 54027U 22128B   26150.47755795  .00000000  00000+0  00000+0 0  9994
2 54027   0.0217 341.2689 0001884  98.0119 211.6257  1.00269698 13731
GALAXY 31 (G-31)        
1 54243U 22153A   26150.47920463  .00000000  00000+0  00000+0 0  9998
2 54243   0.0174 325.7981 0001566 104.0408 229.6679  1.00269996  6955
GALAXY 32 (G-32)        
1 54244U 22153B   26150.27123955 -.00000162  00000+0  00000+0 0  9998
2 54244   0.0147  19.2201 0002547  16.3776 218.8424  1.00271751 12967
GALAXY 35 (G-35)        
1 54741U 22170A   26150.48466465 -.00000150  00000+0  00000+0 0  9995
2 54741   0.0197 291.1648 0002337 141.0252 257.1897  1.00272037 12713
GALAXY 36 (G-36)        
1 54742U 22170B   26150.48553133 -.00000173  00000+0  00000+0 0  9990
2 54742   0.0102  65.2952 0002913  10.9202 257.5801  1.00271906 12596
GALAXY 37 (G-37)        
1 57493U 23112A   26150.47799130  .00000060  00000+0  00000+0 0  9995
2 57493   0.0191  41.8391 0002245  26.8849 224.3469  1.00271366 10363
